[{"OBJECT_NAME":"STARLINK-31904","OBJECT_ID":"2024-084D","EPOCH":"2026-03-09T07:20:14.144928","MEAN_MOTION":15.27572673,"ECCENTRICITY":3.895e-5,"INCLINATION":43.0027,"RA_OF_ASC_NODE":44.0346,"ARG_OF_PERICENTER":294.2534,"MEAN_ANOMALY":65.8277,"EPHEMERIS_TYPE":0,"CLASSIFICATION_TYPE":"U","NORAD_CAT_ID":59657,"ELEMENT_SET_NO":999,"REV_AT_EPOCH":10431,"BSTAR":-6.933349e-5,"MEAN_MOTION_DOT":-2.169e-5,"MEAN_MOTION_DDOT":0},{"OBJECT_NAME":"YAOGAN-43 01G","OBJECT_ID":"2024-148G","EPOCH":"2026-03-09T10:38:37.087584","MEAN_MOTION":15.28332833,"ECCENTRICITY":0.00073829,"INCLINATION":35.0006,"RA_OF_ASC_NODE":62.0013,"ARG_OF_PERICENTER":306.3543,"MEAN_ANOMALY":53.6492,"EPHEMERIS_TYPE":0,"CLASSIFICATION_TYPE":"U","NORAD_CAT_ID":60464,"ELEMENT_SET_NO":999,"REV_AT_EPOCH":8700,"BSTAR":0.00035872736,"MEAN_MOTION_DOT":0.00010133,"MEAN_MOTION_DDOT":0}]
